ORBCOMM FM103 [+]       
1 40091U 14040F   24098.56988982  .00000806  00000+0  21715-3 0  9993
2 40091  47.0050 272.3562 0001274  87.9198 272.1833 14.56441517500565
ORBCOMM FM114 [+]       
1 41179U 15081A   24098.53526708  .00001007  00000+0  26180-3 0  9993
2 41179  47.0021 181.8140 0001417 185.4379 174.6490 14.56456024440928
ORBCOMM FM119 [-]       
1 41180U 15081B   24098.02448970  .00000611  00000+0  17375-3 0  9999
2 41180  47.0003  93.4053 0001851 241.1249 118.9450 14.56426564442104
ORBCOMM FM105 [-]       
1 41181U 15081C   24098.27125855  .00000362  00000+0  14969-3 0  9990
2 41181  47.0023  56.1267 0001572 194.4762 165.6073 14.44304813437710
ORBCOMM FM110 [+]       
1 41182U 15081D   24098.51240935  .00001053  00000+0  27218-3 0  9994
2 41182  47.0009 181.3322 0002376 305.1486  54.9176 14.56456296440797
ORBCOMM FM118 [+]       
1 41183U 15081E   24098.48962089  .00001050  00000+0  27151-3 0  9995
2 41183  47.0031 181.7374 0002516 303.8725  56.1921 14.56455806440890
ORBCOMM FM112 [+]       
1 41184U 15081F   24098.34536383  .00000643  00000+0  18072-3 0  9994
2 41184  46.9987  91.1224 0001346 238.1278 121.9476 14.56438829442096
ORBCOMM FM113 [+]       
1 41185U 15081G   24097.97944639  .00000708  00000+0  19526-3 0  9997
2 41185  47.0005  93.1060 0001457 257.3104 102.7618 14.56435721442020
